H1 CPF  1  DLR 2021 04 22 10  6122 technosat            
H2  1704205 6203    42829 2021 04 22 00 00 00 2021 04 29 00 00 00    60 1 1  0 0 0
H9
10 0 59332  50400.000000  0        864949.779        283427.450      -6914011.703
10 0 59332  50460.000000  0        972379.137       -160709.267      -6903232.414
10 0 59332  50520.000000  0       1071848.125       -605077.733      -6863324.621
10 0 59332  50580.000000  0       1162945.353      -1047744.493      -6794449.443
10 0 59332  50640.000000  0       1245310.974      -1486778.718      -6696888.992
10 0 59332  50700.000000  0       1318638.105      -1920260.466      -6571045.419
10 0 59332  50760.000000  0       1382674.038      -2346288.973      -6417439.533
10 0 59332  50820.000000  0       1437221.150      -2762990.950      -6236708.948
10 0 59332  50880.000000  0       1482137.491      -3168528.889      -6029605.800
10 0 59332  50940.000000  0       1517337.069      -3561109.331      -5796993.903
10 0 59332  51000.000000  0       1542789.865      -3938990.929      -5539845.373
10 0 59332  51060.000000  0       1558521.569      -4300492.286      -5259236.803
10 0 59332  51120.000000  0       1564613.031      -4643999.575      -4956345.035
10 0 59332  51180.000000  0       1561199.424      -4967973.986      -4632442.558
10 0 59332  51240.000000  0       1548469.093      -5270958.969      -4288892.427
10 0 59332  51300.000000  0       1526662.095      -5551587.160      -3927142.697
10 0 59332  51360.000000  0       1496068.441      -5808586.908      -3548720.434
10 0 59332  51420.000000  0       1457026.097      -6040788.391      -3155225.350
10 0 59332  51480.000000  0       1409918.730      -6247129.332      -2748323.084
10 0 59332  51540.000000  0       1355173.202      -6426660.257      -2329738.111
10 0 59332  51600.000000  0       1293256.824      -6578549.223      -1901246.329
10 0 59332  51660.000000  0       1224674.368      -6702086.009      -1464667.392
10 0 59332  51720.000000  0       1149964.820      -6796685.765      -1021856.788
10 0 59332  51780.000000  0       1069697.957      -6861892.017       -574697.660
10 0 59332  51840.000000  0        984470.823      -6897379.014       -125092.530
10 0 59332  51900.000000  0        894904.039      -6902953.492        325045.043
10 0 59332  51960.000000  0        801637.931      -6878555.800        773798.938
10 0 59332  52020.000000  0        705328.597      -6824260.324       1219258.956
10 0 59332  52080.000000  0        606643.915      -6740275.297       1659529.299
10 0 59332  52140.000000  0        506259.493      -6626941.890       2092737.003
10 0 59332  52200.000000  0        404854.585      -6484732.634       2517040.222
10 0 59332  52260.000000  0        303108.006      -6314249.108       2930636.335
10 0 59332  52320.000000  0        201694.060      -6116219.053       3331769.762
10 0 59332  52380.000000  0        101278.504      -5891492.898       3718739.499
10 0 59332  52440.000000  0          2514.648      -5641039.790       4089906.368
10 0 59332  52500.000000  0        -93960.455      -5365943.083       4443700.034
10 0 59332  52560.000000  0       -187529.719      -5067395.222       4778625.663
10 0 59332  52620.000000  0       -277599.568      -4746692.155       5093270.113
10 0 59332  52680.000000  0       -363603.280      -4405227.394       5386307.762
10 0 59332  52740.000000  0       -445004.188      -4044485.620       5656506.008
10 0 59332  52800.000000  0       -521298.678      -3666035.824       5902730.271
10 0 59332  52860.000000  0       -592018.969      -3271524.147       6123948.470
10 0 59332  52920.000000  0       -656735.663      -2862666.456       6319235.003
10 0 59332  52980.000000  0       -715060.073      -2441240.755       6487774.262
10 0 59332  53040.000000  0       -766646.299      -2009079.389       6628863.776
10 0 59332  53100.000000  0       -811193.048      -1568061.029       6741916.900
10 0 59332  53160.000000  0       -848445.226      -1120102.464       6826465.065
10 0 59332  53220.000000  0       -878195.265       -667150.246       6882159.526
10 0 59332  53280.000000  0       -900284.193       -211172.233       6908772.602
10 0 59332  53340.000000  0       -914602.403        245850.875       6906198.450
10 0 59332  53400.000000  0       -921090.138        701934.091       6874453.407
10 0 59332  53460.000000  0       -919737.699       1155096.681       6813675.798
10 0 59332  53520.000000  0       -910585.381       1603370.661       6724125.315
10 0 59332  53580.000000  0       -893723.142       2044809.251       6606181.938
10 0 59332  53640.000000  0       -869290.000       2477495.248       6460344.362
10 0 59332  53700.000000  0       -837473.169       2899549.250       6287228.019
10 0 59332  53760.000000  0       -798506.945       3309137.828       6087562.645
10 0 59332  53820.000000  0       -752671.313       3704481.485       5862189.311
10 0 59332  53880.000000  0       -700290.287       4083862.366       5612057.053
10 0 59332  53940.000000  0       -641730.004       4445631.759       5338219.109
10 0 59332  54000.000000  0       -577396.622       4788217.395       5041828.759
10 0 59332  54060.000000  0       -507733.961       5110130.510       4724134.640
10 0 59332  54120.000000  0       -433220.889       5409972.502       4386475.554
10 0 59332  54180.000000  0       -354368.495       5686441.030       4030274.918
10 0 59332  54240.000000  0       -271717.118       5938335.769       3657035.105
10 0 59332  54300.000000  0       -185833.257       6164564.040       3268331.413
10 0 59332  54360.000000  0        -97306.268       6364146.077       2865805.422
10 0 59332  54420.000000  0         -6744.843       6536219.571       2451157.809
10 0 59332  54480.000000  0         85226.668       6680043.421       2026141.132
10 0 59332  54540.000000  0        177971.960       6795001.150       1592552.436
10 0 59332  54600.000000  0        270846.582       6880603.745       1152225.547
10 0 59332  54660.000000  0        363201.817       6936491.887        707023.225
10 0 59332  54720.000000  0        454388.606       6962437.621        258829.164
10 0 59332  54780.000000  0        543761.501       6958345.371       -190460.191
10 0 59332  54840.000000  0        630682.578       6924252.266       -638943.863
10 0 59332  54900.000000  0        714525.279       6860327.844      -1084724.543
10 0 59332  54960.000000  0        794678.197       6766873.165      -1525916.770
10 0 59332  55020.000000  0        870548.782       6644319.307      -1960655.040
10 0 59332  55080.000000  0        941566.963       6493225.257      -2387101.830
10 0 59332  55140.000000  0       1007188.637       6314275.185      -2803455.467
10 0 59332  55200.000000  0       1066899.043       6108275.156      -3207957.821
10 0 59332  55260.000000  0       1120215.956       5876149.277      -3598901.787
10 0 59332  55320.000000  0       1166692.702       5618935.293      -3974638.503
10 0 59332  55380.000000  0       1205920.984       5337779.690      -4333584.279
10 0 59332  55440.000000  0       1237533.485       5033932.300      -4674227.200
10 0 59332  55500.000000  0       1261206.258       4708740.482      -4995133.352
10 0 59332  55560.000000  0       1276660.856       4363642.916      -5294952.679
10 0 59332  55620.000000  0       1283666.213       4000163.077      -5572424.474
10 0 59332  55680.000000  0       1282040.269       3619902.350      -5826382.537
10 0 59332  55740.000000  0       1271651.339       3224532.777      -6055759.866
10 0 59332  55800.000000  0       1252419.197       2815789.578      -6259592.861
10 0 59332  55860.000000  0       1224315.881       2395463.478      -6437025.099
10 0 59332  55920.000000  0       1187366.232       1965392.902      -6587310.673
10 0 59332  55980.000000  0       1141648.184       1527456.024      -6709817.192
10 0 59332  56040.000000  0       1087292.726       1083562.563      -6804028.321
10 0 59332  56100.000000  0       1024483.609        635645.550      -6869545.775
10 0 59332  56160.000000  0        953456.792        185653.026      -6906090.936
10 0 59332  56220.000000  0        874499.575       -264460.366      -6913505.994
10 0 59332  56280.000000  0        787949.434       -712741.747      -6891754.544
10 0 59332  56340.000000  0        694192.638      -1157248.295      -6840921.788
10 0 59332  56400.000000  0        593662.591      -1596055.518      -6761214.271
10 0 59332  56460.000000  0        486837.929      -2027265.388      -6652959.208
10 0 59332  56520.000000  0        374240.354      -2449014.473      -6516603.491
10 0 59332  56580.000000  0        256432.154      -2859482.079      -6352712.138
10 0 59332  56640.000000  0        134013.487      -3256898.179      -6161966.128
10 0 59332  56700.000000  0          7619.486      -3639551.071      -5945159.810
10 0 59332  56760.000000  0       -122082.852      -4005794.832      -5703197.918
10 0 59332  56820.000000  0       -254398.003      -4354056.578      -5437092.129
10 0 59332  56880.000000  0       -388605.464      -4682843.452      -5147957.136
10 0 59332  56940.000000  0       -523963.490      -4990749.298      -4837006.269
10 0 59332  57000.000000  0       -659713.006      -5276461.010      -4505546.657
10 0 59332  57060.000000  0       -795081.659      -5538764.487      -4154973.935
10 0 59332  57120.000000  0       -929288.000      -5776550.164      -3786766.527
10 0 59332  57180.000000  0      -1061545.760      -5988818.085      -3402479.526
10 0 59332  57240.000000  0      -1191068.213      -6174682.487      -3003738.200
10 0 59332  57300.000000  0      -1317072.601      -6333375.906      -2592231.165
10 0 59332  57360.000000  0      -1438784.598      -6464252.761      -2169703.174
10 0 59332  57420.000000  0      -1555442.764      -6566792.339      -1737947.577
10 0 59332  57480.000000  0      -1666302.963      -6640601.171      -1298798.539
10 0 59332  57540.000000  0      -1770642.741      -6685414.803       -854123.011
99
